CATNR 25338
1 25338U 98030A   26022.49489859  .00000302  00000-0  14138-3 0  9994
2 25338  98.5195  46.9780 0011189  58.3186 301.9084 14.27090995440510
